SPAWAR-CAL-R            
1 43776U 18099U   26067.65115975  .00003570  00000+0  25336-3 0  9990
2 43776  97.4524 111.5817 0019701 348.9052  11.1737 15.05212097396878
STARLINK-5129           
1 54004U 22125AS  26068.66726502  .00000052  00000+0  21352-4 0  9994
2 54004  53.2163 213.9052 0001268  84.1601 275.9536 15.08841133189463
